{
    "links": {
        "self": "http://www.neowsapp.com/rest/v1/neo/3840115?api_key=iIulBulltgU6a56xZRHN4H3l9WmuAYTsLGpBGhQ2"
    },
    "id": "3840115",
    "neo_reference_id": "3840115",
    "name": "(2019 ET2)",
    "designation": "2019 ET2",
    "nasa_jpl_url": "http://ssd.jpl.nasa.gov/sbdb.cgi?sstr=3840115",
    "absolute_magnitude_h": 25.0,
    "estimated_diameter": {
        "kilometers": {
            "estimated_diameter_min": 0.02658,
            "estimated_diameter_max": 0.0594346868
        },
        "meters": {
            "estimated_diameter_min": 26.58,
            "estimated_diameter_max": 59.4346868419
        },
        "miles": {
            "estimated_diameter_min": 0.0165160412,
            "estimated_diameter_max": 0.0369309908
        },
        "feet": {
            "estimated_diameter_min": 87.2047272,
            "estimated_diameter_max": 194.9956979785
        }
    },
    "is_potentially_hazardous_asteroid": false,
    "close_approach_data": [
        {
            "close_approach_date": "2019-03-10",
            "close_approach_date_full": "2019-Mar-10 23:39",
            "epoch_date_close_approach": 1552261140000,
            "relative_velocity": {
                "kilometers_per_second": "7.9204022982",
                "kilometers_per_hour": "28513.4482734667",
                "miles_per_hour": "17717.1479008105"
            },
            "miss_distance": {
                "astronomical": "0.0318452994",
                "lunar": "12.3878214666",
                "kilometers": "4763988.959752278",
                "miles": "2960205.4730383164"
            },
            "orbiting_body": "Earth"
        }
    ],
    "orbital_data": {
        "orbit_id": "2",
        "orbit_determination_date": "2019-04-03 07:35:01",
        "first_observation_date": "2019-03-15",
        "last_observation_date": "2019-04-02",
        "data_arc_in_days": 18,
        "observations_used": 25,
        "orbit_uncertainty": "8",
        "minimum_orbit_intersection": ".0248974",
        "jupiter_tisserand_invariant": "3.541",
        "epoch_osculation": "2458561.5",
        "eccentricity": ".5224420944842514",
        "semi_major_axis": "2.110942488467515",
        "inclination": "7.826991081272973",
        "ascending_node_longitude": "359.6902410031727",
        "orbital_period": "1120.245037873541",
        "perihelion_distance": "1.008097273456749",
        "perihelion_argument": "162.4661661686416",
        "aphelion_distance": "3.213787703478282",
        "perihelion_time": "2458546.462544009150",
        "mean_anomaly": "4.832410743797557",
        "mean_motion": ".3213582634415014",
        "equinox": "J2000",
        "orbit_class": {
            "orbit_class_type": "APO",
            "orbit_class_description": "Near-Earth asteroid orbits which cross the Earth’s orbit similar to that of 1862 Apollo",
            "orbit_class_range": "a (semi-major axis) > 1.0 AU; q (perihelion) < 1.017 AU"
        }
    },
    "is_sentry_object": false
}